STARLINK-34232          
1 65019U 25161E   26068.86046486  .00024629  00000+0  84066-3 0  9999
2 65019  53.1590 293.5800 0001196 120.4385 239.6734 15.30210708 35462
2025-313BC              
1 67298U 25313BC  26068.18968176  .00075331  00000+0  26410-2 0  9997
2 67298  97.3985 144.8110 0008478 328.9209  31.1528 15.29126358  7890
